STARLINK-36892          
1 67944U 26037N   26063.83336806 -.01474904  63712-3 -35632-2 0  9996
2 67944  42.9999 228.4981 0001402 278.4210 318.7942 15.95539681  2412
STARLINK-36908          
1 67945U 26037P   26063.83336806 -.01467586  63292-3 -34978-2 0  9990
2 67945  43.0001 228.4847 0001525 279.4144 322.9196 15.95787551  2412
STARLINK-36909          
1 67946U 26037Q   26063.83336806 -.01445250  61607-3 -34224-2 0  9997
2 67946  43.0000 228.4807 0001480 279.1531 324.8734 15.95902932  2416
STARLINK-36920          
1 67947U 26037R   26063.83336806 -.01463578  63136-3 -34410-2 0  9997
2 67947  43.0002 228.4738 0001184 276.8378 329.7806 15.96037995  2419
STARLINK-36873          
1 67948U 26037S   26063.83336806 -.01453943  62450-3 -33960-2 0  9990
2 67948  43.0002 228.4688 0001358 280.6103 328.0570 15.96156028  2415
STARLINK-36863          
1 67949U 26037T   26063.83336806 -.01454544  62577-3 -33742-2 0  9997
2 67949  43.0004 228.4621 0001326 281.5179 329.7768 15.96281501  2415
STARLINK-36887          
1 67950U 26037U   26063.83336806 -.01458080  62940-3 -33588-2 0  9990
2 67950  43.0003 228.4551 0001362 280.6995 333.3240 15.96409822  2418
STARLINK-36897          
1 67951U 26037V   26063.83336806 -.01440569  61633-3 -32967-2 0  9992
2 67951  43.0004 228.4496 0001393 282.7309 333.5964 15.96526960  2412
STARLINK-36381          
1 67952U 26037W   26063.83336806 -.01446117  62227-3 -32648-2 0  9994
2 67952  43.0005 228.4390 0001633 277.3858 343.0736 15.96773750  2417
STARLINK-36824          
1 67953U 26037X   26063.83336806 -.01462525  63456-3 -33229-2 0  9997
2 67953  43.0005 228.4442 0001482 280.9690 337.4296 15.96661018  2413
STARLINK-36869          
1 67954U 26037Y   26063.83336806 -.01452412  62808-3 -32562-2 0  9991
2 67954  43.0004 228.4344 0001574 275.2243 346.9447 15.96901631  2418
STARLINK-36872          
1 67955U 26037Z   26063.83336806 -.01456816  63320-3 -32220-2 0  9995
2 67955  43.0003 228.4223 0001403 274.3445 352.5242 15.97148622  2419
STARLINK-36918          
1 67956U 26037AA  26063.83336806 -.01447804  62681-3 -31804-2 0  9999
2 67956  43.0005 228.4161 0001569 274.1362 355.2185 15.97269454  2415
STARLINK-36829          
1 67957U 26037AB  26063.83336806 -.01459912  63484-3 -32513-2 0  9993
2 67957  43.0003 228.4290 0001580 278.0158 346.3249 15.97023116  2411
STARLINK-36799          
1 67958U 26037AC  26063.83336806 -.01436192  61834-3 -31347-2 0  9990
2 67958  43.0002 228.4111 0001602 277.2075 354.3119 15.97382963  2410
STARLINK-36834          
1 67959U 26037AD  26063.83336806 -.01454904  63492-3 -31306-2 0  9999
2 67959  43.0002 228.3982 0001365 274.1869   2.2635 15.97642912  2414
