[{"OBJECT_NAME":"STARLINK-36892","OBJECT_ID":"2026-037N","EPOCH":"2026-03-04T20:00:03.000384","MEAN_MOTION":15.95539681,"ECCENTRICITY":0.0001402,"INCLINATION":42.9999,"RA_OF_ASC_NODE":228.4981,"ARG_OF_PERICENTER":278.421,"MEAN_ANOMALY":318.7942,"EPHEMERIS_TYPE":0,"CLASSIFICATION_TYPE":"U","NORAD_CAT_ID":67944,"ELEMENT_SET_NO":999,"REV_AT_EPOCH":241,"BSTAR":-0.0035632,"MEAN_MOTION_DOT":-0.01474904,"MEAN_MOTION_DDOT":0.00063712},{"OBJECT_NAME":"STARLINK-36908","OBJECT_ID":"2026-037P","EPOCH":"2026-03-04T20:00:03.000384","MEAN_MOTION":15.95787551,"ECCENTRICITY":0.0001525,"INCLINATION":43.0001,"RA_OF_ASC_NODE":228.4847,"ARG_OF_PERICENTER":279.4144,"MEAN_ANOMALY":322.9196,"EPHEMERIS_TYPE":0,"CLASSIFICATION_TYPE":"U","NORAD_CAT_ID":67945,"ELEMENT_SET_NO":999,"REV_AT_EPOCH":241,"BSTAR":-0.0034978,"MEAN_MOTION_DOT":-0.01467586,"MEAN_MOTION_DDOT":0.00063292},{"OBJECT_NAME":"STARLINK-36909","OBJECT_ID":"2026-037Q","EPOCH":"2026-03-04T20:00:03.000384","MEAN_MOTION":15.95902932,"ECCENTRICITY":0.000148,"INCLINATION":43,"RA_OF_ASC_NODE":228.4807,"ARG_OF_PERICENTER":279.1531,"MEAN_ANOMALY":324.8734,"EPHEMERIS_TYPE":0,"CLASSIFICATION_TYPE":"U","NORAD_CAT_ID":67946,"ELEMENT_SET_NO":999,"REV_AT_EPOCH":241,"BSTAR":-0.0034224,"MEAN_MOTION_DOT":-0.0144525,"MEAN_MOTION_DDOT":0.00061607},{"OBJECT_NAME":"STARLINK-36920","OBJECT_ID":"2026-037R","EPOCH":"2026-03-04T20:00:03.000384","MEAN_MOTION":15.96037995,"ECCENTRICITY":0.0001184,"INCLINATION":43.0002,"RA_OF_ASC_NODE":228.4738,"ARG_OF_PERICENTER":276.8378,"MEAN_ANOMALY":329.7806,"EPHEMERIS_TYPE":0,"CLASSIFICATION_TYPE":"U","NORAD_CAT_ID":67947,"ELEMENT_SET_NO":999,"REV_AT_EPOCH":241,"BSTAR":-0.003441,"MEAN_MOTION_DOT":-0.01463578,"MEAN_MOTION_DDOT":0.00063136},{"OBJECT_NAME":"STARLINK-36873","OBJECT_ID":"2026-037S","EPOCH":"2026-03-04T20:00:03.000384","MEAN_MOTION":15.96156028,"ECCENTRICITY":0.0001358,"INCLINATION":43.0002,"RA_OF_ASC_NODE":228.4688,"ARG_OF_PERICENTER":280.6103,"MEAN_ANOMALY":328.057,"EPHEMERIS_TYPE":0,"CLASSIFICATION_TYPE":"U","NORAD_CAT_ID":67948,"ELEMENT_SET_NO":999,"REV_AT_EPOCH":241,"BSTAR":-0.003396,"MEAN_MOTION_DOT":-0.01453943,"MEAN_MOTION_DDOT":0.0006245},{"OBJECT_NAME":"STARLINK-36863","OBJECT_ID":"2026-037T","EPOCH":"2026-03-04T20:00:03.000384","MEAN_MOTION":15.96281501,"ECCENTRICITY":0.0001326,"INCLINATION":43.0004,"RA_OF_ASC_NODE":228.4621,"ARG_OF_PERICENTER":281.5179,"MEAN_ANOMALY":329.7768,"EPHEMERIS_TYPE":0,"CLASSIFICATION_TYPE":"U","NORAD_CAT_ID":67949,"ELEMENT_SET_NO":999,"REV_AT_EPOCH":241,"BSTAR":-0.0033742,"MEAN_MOTION_DOT":-0.01454544,"MEAN_MOTION_DDOT":0.00062577},{"OBJECT_NAME":"STARLINK-36887","OBJECT_ID":"2026-037U","EPOCH":"2026-03-04T20:00:03.000384","MEAN_MOTION":15.96409822,"ECCENTRICITY":0.0001362,"INCLINATION":43.0003,"RA_OF_ASC_NODE":228.4551,"ARG_OF_PERICENTER":280.6995,"MEAN_ANOMALY":333.324,"EPHEMERIS_TYPE":0,"CLASSIFICATION_TYPE":"U","NORAD_CAT_ID":67950,"ELEMENT_SET_NO":999,"REV_AT_EPOCH":241,"BSTAR":-0.0033588,"MEAN_MOTION_DOT":-0.0145808,"MEAN_MOTION_DDOT":0.0006294},{"OBJECT_NAME":"STARLINK-36897","OBJECT_ID":"2026-037V","EPOCH":"2026-03-04T20:00:03.000384","MEAN_MOTION":15.9652696,"ECCENTRICITY":0.0001393,"INCLINATION":43.0004,"RA_OF_ASC_NODE":228.4496,"ARG_OF_PERICENTER":282.7309,"MEAN_ANOMALY":333.5964,"EPHEMERIS_TYPE":0,"CLASSIFICATION_TYPE":"U","NORAD_CAT_ID":67951,"ELEMENT_SET_NO":999,"REV_AT_EPOCH":241,"BSTAR":-0.0032967,"MEAN_MOTION_DOT":-0.01440569,"MEAN_MOTION_DDOT":0.00061633},{"OBJECT_NAME":"STARLINK-36381","OBJECT_ID":"2026-037W","EPOCH":"2026-03-04T20:00:03.000384","MEAN_MOTION":15.9677375,"ECCENTRICITY":0.0001633,"INCLINATION":43.0005,"RA_OF_ASC_NODE":228.439,"ARG_OF_PERICENTER":277.3858,"MEAN_ANOMALY":343.0736,"EPHEMERIS_TYPE":0,"CLASSIFICATION_TYPE":"U","NORAD_CAT_ID":67952,"ELEMENT_SET_NO":999,"REV_AT_EPOCH":241,"BSTAR":-0.0032648,"MEAN_MOTION_DOT":-0.01446117,"MEAN_MOTION_DDOT":0.00062227},{"OBJECT_NAME":"STARLINK-36824","OBJECT_ID":"2026-037X","EPOCH":"2026-03-04T20:00:03.000384","MEAN_MOTION":15.96661018,"ECCENTRICITY":0.0001482,"INCLINATION":43.0005,"RA_OF_ASC_NODE":228.4442,"ARG_OF_PERICENTER":280.969,"MEAN_ANOMALY":337.4296,"EPHEMERIS_TYPE":0,"CLASSIFICATION_TYPE":"U","NORAD_CAT_ID":67953,"ELEMENT_SET_NO":999,"REV_AT_EPOCH":241,"BSTAR":-0.0033229,"MEAN_MOTION_DOT":-0.01462525,"MEAN_MOTION_DDOT":0.00063456},{"OBJECT_NAME":"STARLINK-36869","OBJECT_ID":"2026-037Y","EPOCH":"2026-03-04T20:00:03.000384","MEAN_MOTION":15.96901631,"ECCENTRICITY":0.0001574,"INCLINATION":43.0004,"RA_OF_ASC_NODE":228.4344,"ARG_OF_PERICENTER":275.2243,"MEAN_ANOMALY":346.9447,"EPHEMERIS_TYPE":0,"CLASSIFICATION_TYPE":"U","NORAD_CAT_ID":67954,"ELEMENT_SET_NO":999,"REV_AT_EPOCH":241,"BSTAR":-0.0032562,"MEAN_MOTION_DOT":-0.01452412,"MEAN_MOTION_DDOT":0.00062808},{"OBJECT_NAME":"STARLINK-36872","OBJECT_ID":"2026-037Z","EPOCH":"2026-03-04T20:00:03.000384","MEAN_MOTION":15.97148622,"ECCENTRICITY":0.0001403,"INCLINATION":43.0003,"RA_OF_ASC_NODE":228.4223,"ARG_OF_PERICENTER":274.3445,"MEAN_ANOMALY":352.5242,"EPHEMERIS_TYPE":0,"CLASSIFICATION_TYPE":"U","NORAD_CAT_ID":67955,"ELEMENT_SET_NO":999,"REV_AT_EPOCH":241,"BSTAR":-0.003222,"MEAN_MOTION_DOT":-0.01456816,"MEAN_MOTION_DDOT":0.0006332},{"OBJECT_NAME":"STARLINK-36918","OBJECT_ID":"2026-037AA","EPOCH":"2026-03-04T20:00:03.000384","MEAN_MOTION":15.97269454,"ECCENTRICITY":0.0001569,"INCLINATION":43.0005,"RA_OF_ASC_NODE":228.4161,"ARG_OF_PERICENTER":274.1362,"MEAN_ANOMALY":355.2185,"EPHEMERIS_TYPE":0,"CLASSIFICATION_TYPE":"U","NORAD_CAT_ID":67956,"ELEMENT_SET_NO":999,"REV_AT_EPOCH":241,"BSTAR":-0.0031804,"MEAN_MOTION_DOT":-0.01447804,"MEAN_MOTION_DDOT":0.00062681},{"OBJECT_NAME":"STARLINK-36829","OBJECT_ID":"2026-037AB","EPOCH":"2026-03-04T20:00:03.000384","MEAN_MOTION":15.97023116,"ECCENTRICITY":0.000158,"INCLINATION":43.0003,"RA_OF_ASC_NODE":228.429,"ARG_OF_PERICENTER":278.0158,"MEAN_ANOMALY":346.3249,"EPHEMERIS_TYPE":0,"CLASSIFICATION_TYPE":"U","NORAD_CAT_ID":67957,"ELEMENT_SET_NO":999,"REV_AT_EPOCH":241,"BSTAR":-0.0032513,"MEAN_MOTION_DOT":-0.01459912,"MEAN_MOTION_DDOT":0.00063484},{"OBJECT_NAME":"STARLINK-36799","OBJECT_ID":"2026-037AC","EPOCH":"2026-03-04T20:00:03.000384","MEAN_MOTION":15.97382963,"ECCENTRICITY":0.0001602,"INCLINATION":43.0002,"RA_OF_ASC_NODE":228.4111,"ARG_OF_PERICENTER":277.2075,"MEAN_ANOMALY":354.3119,"EPHEMERIS_TYPE":0,"CLASSIFICATION_TYPE":"U","NORAD_CAT_ID":67958,"ELEMENT_SET_NO":999,"REV_AT_EPOCH":241,"BSTAR":-0.0031347,"MEAN_MOTION_DOT":-0.01436192,"MEAN_MOTION_DDOT":0.00061834},{"OBJECT_NAME":"STARLINK-36834","OBJECT_ID":"2026-037AD","EPOCH":"2026-03-04T20:00:03.000384","MEAN_MOTION":15.97642912,"ECCENTRICITY":0.0001365,"INCLINATION":43.0002,"RA_OF_ASC_NODE":228.3982,"ARG_OF_PERICENTER":274.1869,"MEAN_ANOMALY":2.2635,"EPHEMERIS_TYPE":0,"CLASSIFICATION_TYPE":"U","NORAD_CAT_ID":67959,"ELEMENT_SET_NO":999,"REV_AT_EPOCH":241,"BSTAR":-0.0031306,"MEAN_MOTION_DOT":-0.01454904,"MEAN_MOTION_DDOT":0.00063492}]
